{
  "type": "FeatureCollection",
  "features": [
    {
      "type": "Feature",
      "properties": {
        "norad_id": 41860,
        "name": "GSAT0212 (GALILEO 16)",
        "group": "galileo",
        "lat": 50.64746523242269,
        "lon": 163.74136077488254,
        "alt_km": 23210.793334723003,
        "timestamp": "2025-12-06T07:31:40.499990+00:00",
        "meta_object_name": "GSAT0212 (GALILEO 16)",
        "meta_object_id": "2016-069B",
        "meta_epoch": "2025-12-02T16:19:30.905184",
        "meta_mean_motion": 1.70474418,
        "meta_eccentricity": 0.00022458,
        "meta_inclination": 55.3738,
        "meta_ra_of_asc_node": 106.5243,
        "meta_arg_of_pericenter": 34.2432,
        "meta_mean_anomaly": 325.7313,
        "meta_ephemeris_type": 0,
        "meta_classification_type": "U",
        "meta_norad_cat_id": 41860,
        "meta_element_set_no": 999,
        "meta_rev_at_epoch": 5630,
        "meta_bstar": 0,
        "meta_mean_motion_dot": 2.7e-07,
        "meta_mean_motion_ddot": 0,
        "tle_line1": "1 41860U 16069B   25336.68021881  .00000027  00000+0  00000+0 0  9991",
        "tle_line2": "2 41860  55.3738 106.5243 0002245  34.2432 325.7313  1.70474418 56308"
      },
      "geometry": {
        "type": "Point",
        "coordinates": [
          163.74136077488254,
          50.64746523242269
        ]
      }
    },
    {
      "type": "Feature",
      "properties": {
        "norad_id": 41861,
        "name": "GSAT0213 (GALILEO 17)",
        "group": "galileo",
        "lat": -19.83828980748697,
        "lon": -59.16457924601692,
        "alt_km": 23223.67166862594,
        "timestamp": "2025-12-06T07:31:40.500001+00:00",
        "meta_object_name": "GSAT0213 (GALILEO 17)",
        "meta_object_id": "2016-069C",
        "meta_epoch": "2025-12-04T19:22:49.962144",
        "meta_mean_motion": 1.70474712,
        "meta_eccentricity": 0.00021375,
        "meta_inclination": 55.3775,
        "meta_ra_of_asc_node": 106.4729,
        "meta_arg_of_pericenter": 283.7545,
        "meta_mean_anomaly": 76.173,
        "meta_ephemeris_type": 0,
        "meta_classification_type": "U",
        "meta_norad_cat_id": 41861,
        "meta_element_set_no": 999,
        "meta_rev_at_epoch": 5620,
        "meta_bstar": 0,
        "meta_mean_motion_dot": 1e-07,
        "meta_mean_motion_ddot": 0,
        "tle_line1": "1 41861U 16069C   25338.80752271  .00000010  00000+0  00000+0 0  9994",
        "tle_line2": "2 41861  55.3775 106.4729 0002137 283.7545  76.1730  1.70474712 56200"
      },
      "geometry": {
        "type": "Point",
        "coordinates": [
          -59.16457924601692,
          -19.83828980748697
        ]
      }
    },
    {
      "type": "Feature",
      "properties": {
        "norad_id": 41862,
        "name": "GSAT0214 (GALILEO 18)",
        "group": "galileo",
        "lat": 48.350430245103865,
        "lon": -124.50093974856088,
        "alt_km": 23219.759242054213,
        "timestamp": "2025-12-06T07:31:40.500012+00:00",
        "meta_object_name": "GSAT0214 (GALILEO 18)",
        "meta_object_id": "2016-069D",
        "meta_epoch": "2025-12-04T08:48:23.346432",
        "meta_mean_motion": 1.7047456,
        "meta_eccentricity": 0.00011429,
        "meta_inclination": 55.3755,
        "meta_ra_of_asc_node": 106.478,
        "meta_arg_of_pericenter": 290.8494,
        "meta_mean_anomaly": 69.0905,
        "meta_ephemeris_type": 0,
        "meta_classification_type": "U",
        "meta_norad_cat_id": 41862,
        "meta_element_set_no": 999,
        "meta_rev_at_epoch": 5632,
        "meta_bstar": 0,
        "meta_mean_motion_dot": 1.3e-07,
        "meta_mean_motion_ddot": 0,
        "tle_line1": "1 41862U 16069D   25338.36693688  .00000013  00000+0  00000+0 0  9995",
        "tle_line2": "2 41862  55.3755 106.4780 0001142 290.8494  69.0905  1.70474560 56322"
      },
      "geometry": {
        "type": "Point",
        "coordinates": [
          -124.50093974856088,
          48.350430245103865
        ]
      }
    },
    {
      "type": "Feature",
      "properties": {
        "norad_id": 43055,
        "name": "GSAT0215 (GALILEO 19)",
        "group": "galileo",
        "lat": 4.970517551527824,
        "lon": 43.35044623083312,
        "alt_km": 23225.249074266616,
        "timestamp": "2025-12-06T07:31:40.500023+00:00",
        "meta_object_name": "GSAT0215 (GALILEO 19)",
        "meta_object_id": "2017-079A",
        "meta_epoch": "2025-11-29T13:52:03.216864",
        "meta_mean_motion": 1.70473718,
        "meta_eccentricity": 0.0001588,
        "meta_inclination": 55.1353,
        "meta_ra_of_asc_node": 227.0004,
        "meta_arg_of_pericenter": 310.5234,
        "meta_mean_anomaly": 49.536,
        "meta_ephemeris_type": 0,
        "meta_classification_type": "U",
        "meta_norad_cat_id": 43055,
        "meta_element_set_no": 999,
        "meta_rev_at_epoch": 4958,
        "meta_bstar": 0,
        "meta_mean_motion_dot": 2.7e-07,
        "meta_mean_motion_ddot": 0,
        "tle_line1": "1 43055U 17079A   25333.57781501  .00000027  00000+0  00000+0 0  9998",
        "tle_line2": "2 43055  55.1353 227.0004 0001588 310.5234  49.5360  1.70473718 49587"
      },
      "geometry": {
        "type": "Point",
        "coordinates": [
          43.35044623083312,
          4.970517551527824
        ]
      }
    },
    {
      "type": "Feature",
      "properties": {
        "norad_id": 43056,
        "name": "GSAT0216 (GALILEO 20)",
        "group": "galileo",
        "lat": -3.9871346650960784,
        "lon": -135.95942413435026,
        "alt_km": 23217.045546847326,
        "timestamp": "2025-12-06T07:31:40.500034+00:00",
        "meta_object_name": "GSAT0216 (GALILEO 20)",
        "meta_object_id": "2017-079B",
        "meta_epoch": "2025-12-03T23:24:20.577888",
        "meta_mean_motion": 1.70473886,
        "meta_eccentricity": 0.0002683,
        "meta_inclination": 55.1334,
        "meta_ra_of_asc_node": 226.8793,
        "meta_arg_of_pericenter": 313.43,
        "meta_mean_anomaly": 46.6407,
        "meta_ephemeris_type": 0,
        "meta_classification_type": "U",
        "meta_norad_cat_id": 43056,
        "meta_element_set_no": 999,
        "meta_rev_at_epoch": 4967,
        "meta_bstar": 0,
        "meta_mean_motion_dot": 4.1e-07,
        "meta_mean_motion_ddot": 0,
        "tle_line1": "1 43056U 17079B   25337.97523817  .00000041  00000+0  00000+0 0  9997",
        "tle_line2": "2 43056  55.1334 226.8793 0002683 313.4300  46.6407  1.70473886 49678"
      },
      "geometry": {
        "type": "Point",
        "coordinates": [
          -135.95942413435026,
          -3.9871346650960784
        ]
      }
    },
    {
      "type": "Feature",
      "properties": {
        "norad_id": 43057,
        "name": "GSAT0217 (GALILEO 21)",
        "group": "galileo",
        "lat": -31.60201075455388,
        "lon": 72.19405696662699,
        "alt_km": 23229.961077874974,
        "timestamp": "2025-12-06T07:31:40.500045+00:00",
        "meta_object_name": "GSAT0217 (GALILEO 21)",
        "meta_object_id": "2017-079C",
        "meta_epoch": "2025-12-04T04:42:09.816480",
        "meta_mean_motion": 1.70473692,
        "meta_eccentricity": 0.00028457,
        "meta_inclination": 55.1313,
        "meta_ra_of_asc_node": 226.8712,
        "meta_arg_of_pericenter": 336.0147,
        "meta_mean_anomaly": 24.0661,
        "meta_ephemeris_type": 0,
        "meta_classification_type": "U",
        "meta_norad_cat_id": 43057,
        "meta_element_set_no": 999,
        "meta_rev_at_epoch": 4966,
        "meta_bstar": 0,
        "meta_mean_motion_dot": 4.1e-07,
        "meta_mean_motion_ddot": 0,
        "tle_line1": "1 43057U 17079C   25338.19594695  .00000041  00000+0  00000+0 0  9995",
        "tle_line2": "2 43057  55.1313 226.8712 0002845 336.0147  24.0661  1.70473692 49663"
      },
      "geometry": {
        "type": "Point",
        "coordinates": [
          72.19405696662699,
          -31.60201075455388
        ]
      }
    },
    {
      "type": "Feature",
      "properties": {
        "norad_id": 43058,
        "name": "GSAT0218 (GALILEO 22)",
        "group": "galileo",
        "lat": 54.78715777616154,
        "lon": -52.48828478988608,
        "alt_km": 23222.49918960884,
        "timestamp": "2025-12-06T07:31:40.500056+00:00",
        "meta_object_name": "GSAT0218 (GALILEO 22)",
        "meta_object_id": "2017-079D",
        "meta_epoch": "2025-12-03T05:49:40.297728",
        "meta_mean_motion": 1.70473824,
        "meta_eccentricity": 0.00029171,
        "meta_inclination": 55.1321,
        "meta_ra_of_asc_node": 226.8951,
        "meta_arg_of_pericenter": 304.1404,
        "meta_mean_anomaly": 55.9211,
        "meta_ephemeris_type": 0,
        "meta_classification_type": "U",
        "meta_norad_cat_id": 43058,
        "meta_element_set_no": 999,
        "meta_rev_at_epoch": 4967,
        "meta_bstar": 0,
        "meta_mean_motion_dot": 3.9e-07,
        "meta_mean_motion_ddot": 0,
        "tle_line1": "1 43058U 17079D   25337.24282752  .00000039  00000+0  00000+0 0  9996",
        "tle_line2": "2 43058  55.1321 226.8951 0002917 304.1404  55.9211  1.70473824 49672"
      },
      "geometry": {
        "type": "Point",
        "coordinates": [
          -52.48828478988608,
          54.78715777616154
        ]
      }
    }
  ]
}